<?xml version="1.0" encoding="UTF-8"?>
<gpx version="1.1" creator="MetroNearby" xmlns="http://www.topografix.com/GPX/1/1">
  <metadata>
    <name>MetroNearby 北京 1 号线全线站点</name>
    <desc>北京地铁 1 号线（含八通线贯通）苹果园→环球度假区全部 36 站，WGS-84，坐标与 app/src/main/assets/metro/line_beijing_1.json 一致。苹果园只显示东行、环球度假区只显示西行，其余各站双向。</desc>
    <time>2026-01-01T00:00:00Z</time>
  </metadata>

  <wpt lat="39.9248346" lon="116.1719509">
    <ele>45</ele>
    <name>苹果园</name>
    <desc>bj1_01 · 第1站 · 线路西端，只显示东行</desc>
  </wpt>
  <wpt lat="39.9061423" lon="116.1844475">
    <ele>45</ele>
    <name>古城</name>
    <desc>bj1_02 · 第2站</desc>
  </wpt>
  <wpt lat="39.9061539" lon="116.2064861">
    <ele>45</ele>
    <name>八角游乐园</name>
    <desc>bj1_03 · 第3站 · 封闭改造中</desc>
  </wpt>
  <wpt lat="39.9061888" lon="116.2296796">
    <ele>45</ele>
    <name>八宝山</name>
    <desc>bj1_04 · 第4站</desc>
  </wpt>
  <wpt lat="39.9061931" lon="116.2468996">
    <ele>45</ele>
    <name>玉泉路</name>
    <desc>bj1_05 · 第5站</desc>
  </wpt>
  <wpt lat="39.9062214" lon="116.2680336">
    <ele>45</ele>
    <name>五棵松</name>
    <desc>bj1_06 · 第6站</desc>
  </wpt>
  <wpt lat="39.9062159" lon="116.2887714">
    <ele>45</ele>
    <name>万寿路</name>
    <desc>bj1_07 · 第7站</desc>
  </wpt>
  <wpt lat="39.9061762" lon="116.3041253">
    <ele>45</ele>
    <name>公主坟</name>
    <desc>bj1_08 · 第8站</desc>
  </wpt>
  <wpt lat="39.9061218" lon="116.3178241">
    <ele>45</ele>
    <name>军事博物馆</name>
    <desc>bj1_09 · 第9站</desc>
  </wpt>
  <wpt lat="39.9061161" lon="116.3315051">
    <ele>45</ele>
    <name>木樨地</name>
    <desc>bj1_10 · 第10站</desc>
  </wpt>
  <wpt lat="39.9058662" lon="116.3465697">
    <ele>45</ele>
    <name>南礼士路</name>
    <desc>bj1_11 · 第11站</desc>
  </wpt>
  <wpt lat="39.9059480" lon="116.3505107">
    <ele>45</ele>
    <name>复兴门</name>
    <desc>bj1_12 · 第12站</desc>
  </wpt>
  <wpt lat="39.9057386" lon="116.3682035">
    <ele>45</ele>
    <name>西单</name>
    <desc>bj1_13 · 第13站</desc>
  </wpt>
  <wpt lat="39.9059702" lon="116.3851622">
    <ele>45</ele>
    <name>天安门西</name>
    <desc>bj1_14 · 第14站</desc>
  </wpt>
  <wpt lat="39.9063337" lon="116.3949169">
    <ele>45</ele>
    <name>天安门东</name>
    <desc>bj1_15 · 第15站</desc>
  </wpt>
  <wpt lat="39.9069496" lon="116.4052789">
    <ele>45</ele>
    <name>王府井</name>
    <desc>bj1_16 · 第16站</desc>
  </wpt>
  <wpt lat="39.9068579" lon="116.4126260">
    <ele>45</ele>
    <name>东单</name>
    <desc>bj1_17 · 第17站</desc>
  </wpt>
  <wpt lat="39.9071594" lon="116.4292321">
    <ele>45</ele>
    <name>建国门</name>
    <desc>bj1_18 · 第18站</desc>
  </wpt>
  <wpt lat="39.9070982" lon="116.4441500">
    <ele>45</ele>
    <name>永安里</name>
    <desc>bj1_19 · 第19站</desc>
  </wpt>
  <wpt lat="39.9070164" lon="116.4556474">
    <ele>45</ele>
    <name>国贸</name>
    <desc>bj1_20 · 第20站</desc>
  </wpt>
  <wpt lat="39.9069399" lon="116.4712272">
    <ele>45</ele>
    <name>大望路</name>
    <desc>bj1_21 · 第21站</desc>
  </wpt>
  <wpt lat="39.9075722" lon="116.4893819">
    <ele>45</ele>
    <name>四惠</name>
    <desc>bj1_22 · 第22站</desc>
  </wpt>
  <wpt lat="39.9073037" lon="116.5094811">
    <ele>45</ele>
    <name>四惠东</name>
    <desc>bj1_23 · 第23站</desc>
  </wpt>
  <wpt lat="39.9082528" lon="116.5255476">
    <ele>45</ele>
    <name>高碑店</name>
    <desc>bj1_24 · 第24站</desc>
  </wpt>
  <wpt lat="39.9080422" lon="116.5488365">
    <ele>45</ele>
    <name>传媒大学</name>
    <desc>bj1_25 · 第25站</desc>
  </wpt>
  <wpt lat="39.9090728" lon="116.5709843">
    <ele>45</ele>
    <name>双桥</name>
    <desc>bj1_26 · 第26站</desc>
  </wpt>
  <wpt lat="39.9080845" lon="116.5931678">
    <ele>45</ele>
    <name>管庄</name>
    <desc>bj1_27 · 第27站</desc>
  </wpt>
  <wpt lat="39.9050518" lon="116.6127053">
    <ele>45</ele>
    <name>八里桥</name>
    <desc>bj1_28 · 第28站</desc>
  </wpt>
  <wpt lat="39.9027423" lon="116.6314069">
    <ele>45</ele>
    <name>通州北苑</name>
    <desc>bj1_29 · 第29站</desc>
  </wpt>
  <wpt lat="39.8922857" lon="116.6407547">
    <ele>45</ele>
    <name>果园</name>
    <desc>bj1_30 · 第30站</desc>
  </wpt>
  <wpt lat="39.8891650" lon="116.6516230">
    <ele>45</ele>
    <name>九棵树</name>
    <desc>bj1_31 · 第31站</desc>
  </wpt>
  <wpt lat="39.8825642" lon="116.6627402">
    <ele>45</ele>
    <name>梨园</name>
    <desc>bj1_32 · 第32站</desc>
  </wpt>
  <wpt lat="39.8742944" lon="116.6728594">
    <ele>45</ele>
    <name>临河里</name>
    <desc>bj1_33 · 第33站</desc>
  </wpt>
  <wpt lat="39.8707455" lon="116.6802742">
    <ele>45</ele>
    <name>土桥</name>
    <desc>bj1_34 · 第34站</desc>
  </wpt>
  <wpt lat="39.8553801" lon="116.6890142">
    <ele>45</ele>
    <name>花庄</name>
    <desc>bj1_35 · 第35站</desc>
  </wpt>
  <wpt lat="39.8481659" lon="116.6735290">
    <ele>45</ele>
    <name>环球度假区</name>
    <desc>bj1_36 · 第36站 · 线路东端，只显示西行</desc>
  </wpt>

  <trk>
    <name>MetroNearby 一号线全线站点序列</name>
    <trkseg>
      <trkpt lat="39.9248346" lon="116.1719509"><ele>45</ele><time>2026-01-01T00:00:00Z</time></trkpt>
      <trkpt lat="39.9061423" lon="116.1844475"><ele>45</ele><time>2026-01-01T00:00:20Z</time></trkpt>
      <trkpt lat="39.9061539" lon="116.2064861"><ele>45</ele><time>2026-01-01T00:00:40Z</time></trkpt>
      <trkpt lat="39.9061888" lon="116.2296796"><ele>45</ele><time>2026-01-01T00:01:00Z</time></trkpt>
      <trkpt lat="39.9061931" lon="116.2468996"><ele>45</ele><time>2026-01-01T00:01:20Z</time></trkpt>
      <trkpt lat="39.9062214" lon="116.2680336"><ele>45</ele><time>2026-01-01T00:01:40Z</time></trkpt>
      <trkpt lat="39.9062159" lon="116.2887714"><ele>45</ele><time>2026-01-01T00:02:00Z</time></trkpt>
      <trkpt lat="39.9061762" lon="116.3041253"><ele>45</ele><time>2026-01-01T00:02:20Z</time></trkpt>
      <trkpt lat="39.9061218" lon="116.3178241"><ele>45</ele><time>2026-01-01T00:02:40Z</time></trkpt>
      <trkpt lat="39.9061161" lon="116.3315051"><ele>45</ele><time>2026-01-01T00:03:00Z</time></trkpt>
      <trkpt lat="39.9058662" lon="116.3465697"><ele>45</ele><time>2026-01-01T00:03:20Z</time></trkpt>
      <trkpt lat="39.9059480" lon="116.3505107"><ele>45</ele><time>2026-01-01T00:03:40Z</time></trkpt>
      <trkpt lat="39.9057386" lon="116.3682035"><ele>45</ele><time>2026-01-01T00:04:00Z</time></trkpt>
      <trkpt lat="39.9059702" lon="116.3851622"><ele>45</ele><time>2026-01-01T00:04:20Z</time></trkpt>
      <trkpt lat="39.9063337" lon="116.3949169"><ele>45</ele><time>2026-01-01T00:04:40Z</time></trkpt>
      <trkpt lat="39.9069496" lon="116.4052789"><ele>45</ele><time>2026-01-01T00:05:00Z</time></trkpt>
      <trkpt lat="39.9068579" lon="116.4126260"><ele>45</ele><time>2026-01-01T00:05:20Z</time></trkpt>
      <trkpt lat="39.9071594" lon="116.4292321"><ele>45</ele><time>2026-01-01T00:05:40Z</time></trkpt>
      <trkpt lat="39.9070982" lon="116.4441500"><ele>45</ele><time>2026-01-01T00:06:00Z</time></trkpt>
      <trkpt lat="39.9070164" lon="116.4556474"><ele>45</ele><time>2026-01-01T00:06:20Z</time></trkpt>
      <trkpt lat="39.9069399" lon="116.4712272"><ele>45</ele><time>2026-01-01T00:06:40Z</time></trkpt>
      <trkpt lat="39.9075722" lon="116.4893819"><ele>45</ele><time>2026-01-01T00:07:00Z</time></trkpt>
      <trkpt lat="39.9073037" lon="116.5094811"><ele>45</ele><time>2026-01-01T00:07:20Z</time></trkpt>
      <trkpt lat="39.9082528" lon="116.5255476"><ele>45</ele><time>2026-01-01T00:07:40Z</time></trkpt>
      <trkpt lat="39.9080422" lon="116.5488365"><ele>45</ele><time>2026-01-01T00:08:00Z</time></trkpt>
      <trkpt lat="39.9090728" lon="116.5709843"><ele>45</ele><time>2026-01-01T00:08:20Z</time></trkpt>
      <trkpt lat="39.9080845" lon="116.5931678"><ele>45</ele><time>2026-01-01T00:08:40Z</time></trkpt>
      <trkpt lat="39.9050518" lon="116.6127053"><ele>45</ele><time>2026-01-01T00:09:00Z</time></trkpt>
      <trkpt lat="39.9027423" lon="116.6314069"><ele>45</ele><time>2026-01-01T00:09:20Z</time></trkpt>
      <trkpt lat="39.8922857" lon="116.6407547"><ele>45</ele><time>2026-01-01T00:09:40Z</time></trkpt>
      <trkpt lat="39.8891650" lon="116.6516230"><ele>45</ele><time>2026-01-01T00:10:00Z</time></trkpt>
      <trkpt lat="39.8825642" lon="116.6627402"><ele>45</ele><time>2026-01-01T00:10:20Z</time></trkpt>
      <trkpt lat="39.8742944" lon="116.6728594"><ele>45</ele><time>2026-01-01T00:10:40Z</time></trkpt>
      <trkpt lat="39.8707455" lon="116.6802742"><ele>45</ele><time>2026-01-01T00:11:00Z</time></trkpt>
      <trkpt lat="39.8553801" lon="116.6890142"><ele>45</ele><time>2026-01-01T00:11:20Z</time></trkpt>
      <trkpt lat="39.8481659" lon="116.6735290"><ele>45</ele><time>2026-01-01T00:11:40Z</time></trkpt>
    </trkseg>
  </trk>
</gpx>
